000
FTAK31 PANC 061909 AAA
TAF AMD
PAGK 061909Z 061918 01006KT P6SM SCT020 BKN040 TEMPO 1904 5SM
      -SHSN BKN020
     FM0400 01006KT P6SM SCT035 BKN070 TEMPO 0409 BKN035
     FM0900 VRB03KT P6SM SCT020 BKN040 TEMPO 0918 3SM -SHSN BR
      SCT010 BKN020=
PAKN 061909Z 061918 01009KT P6SM SCT010 BKN040 TEMPO 1922 2SM -SHSN
      BR BKN010
    FM2200 34007KT P6SM SCT020 BKN080 TEMPO 2224 BKN020
    FM0000 01006KT P6SM SCT080 BKN150 BECMG 0608 01012KT=
