000 
FTUS42 KCAE 010500
TAFAGS
TAF
KAGS 010528Z 010606 00000KT 6SM BR SKC
      TEMPO 0610 3SM BR
     FM1000 VRB04KT P6SM SKC
     FM1400 28012KT P6SM SKC
     FM1600 29018G28KT P6SM SKC
     FM2300 27010G15KT P6SM SKC=
