000 
FTAK31 PAJN 010500
TAFAGS
TAF
PAGS 010539Z 010606 01008KT P6SM BKN100 OVC150 WS015/08035KT
      TEMPO 0812 04010G18KT SCT040 BKN080
     FM1200 03012G21KT P6SM SCT010 BKN020 OVC040 WS020/12050KT
     FM1800 12018G28KT 3SM -SN BR FEW006 BKN010 OVC020
     FM0300 14015G25KT P6SM VCSH SCT020 BKN040 BKN060
      AMD LTD TO CLD VIS AND WIND=
