790 
FTUS43 KDMX 010005 AAA
TAFDSM
TAF AMD
KDSM 292354Z 2923/0124 13010KT P6SM OVC008
     FM010400 VRB05KT 3SM BR BKN008
     FM010900 12005KT 1SM BR BKN005
     FM011300 06006KT 3SM BR BKN008
     FM011700 04008KT P6SM OVC015=
