313 
FTUS43 KDMX 311721
TAFDSM
TAF
KDSM 311721Z 3118/0118 16014KT P6SM OVC007
     FM010200 14005KT P6SM BKN015
     FM010600 13005KT 1SM BR BKN008
     FM010900 08005KT 1/2SM FZFG BKN008
     FM011200 06006KT 2SM BR BKN008
     FM011500 03007KT P6SM OVC015=
