839
FTUS43 KGID 222019 AAG
TAFGRI
TAF AMD
KGRI 222019Z 2220/2318 04015KT 3SM RA BR OVC014
      TEMPO 2220/2224 2SM RA BR OVC008
     FM230000 04014G22KT 3SM RA BR OVC006
     FM230900 01011KT 3SM RA BR OVC004
     FM231100 01012G20KT 2SM RA BR OVC004=
