424 
FTUS43 KGRR 121720
TAFGRR
TAF
KGRR 121720Z 1218/1318 23009KT P6SM VCSH SCT040 BKN070 PROB30
      1219/1223 2SM +TSRA BKN035CB
     FM130100 25006KT P6SM SCT050
     FM130600 VRB03KT 5SM BR SCT020
     FM131400 33005KT P6SM SCT020=
