494 
FTUS43 KGRR 121910 AAB
TAFGRR
TAF AMD
KGRR 121910Z 1219/1318 23009KT P6SM VCTS SCT040CB
      TEMPO 1219/1221 2SM TSRA BKN040CB
     FM122200 24008KT P6SM VCSH SCT040 PROB30 1222/1223 2SM TSRA
      BKN040CB
     FM130100 25006KT P6SM SCT050
     FM130600 VRB03KT 5SM BR SCT020
     FM131400 33005KT P6SM SCT020=
