094
FTUS41 KOKX 200931 AAS
TAFHPN
TAF AMD
KHPN 200931Z 2010/2106 16005KT 6SM BR VCSH SCT008 OVC010
     FM201030 13005KT 2SM BR VCSH OVC004 WS020/23030KT
       TEMPO 2011/2012 1/2SM FG VV002
     FM201200 15003KT 1SM BR VCSH OVC002 WS020/24040KT
       TEMPO 2012/2013 1/2SM FG
     FM201400 20009KT 2SM BR VCSH BKN004 OVC009 WS020/24040KT
     FM201600 21007KT P6SM SCT015 BKN100 WS020/24040KT
     FM201800 21013G20KT P6SM BKN040
     FM202300 24012KT P6SM VCTS BKN040CB BKN100
     FM210200 28010KT P6SM SCT050 BKN200
     FM210400 32017G27KT P6SM SCT035 SCT100
     AMD NOT SKED=
