625 
FTUS42 KGSP 140501 AAQ
TAFHKY
TAF AMD
KHKY 140501Z 1405/1424 VRB03KT 2SM BR VCSH OVC002
      TEMPO 1405/1407 1/4SM FG VV001
     FM140700 VRB02KT 1 1/2SM -SHRA BR OVC003
     FM141700 22005KT 6SM -SHRA BR OVC024 PROB30 1417/1421 4SM TSRA
      BR OVC015CB
     FM142100 22005KT P6SM OVC017=
