313 
FTUS43 KGRR 031720
TAFJXN
TAF
KJXN 031720Z 0318/0418 29013G21KT P6SM BKN025 PROB30 0320/0323 3SM
      -SN=
