768 
FTUS41 KOKX 251341 AAA
TAFJFK
TAF AMD
KJFK 251341Z 2514/2618 05006KT P6SM BKN018
     FM251600 06008KT P6SM OVC025
     FM252200 06009KT P6SM BKN040
     FM260500 05007KT P6SM SCT040
     FM261400 06006KT P6SM SCT200
     FM261700 12008KT P6SM SCT200=
