400
FTUS43 KDDC 250547 RRA
TAFLBL
TAF
KLBL 250547Z 2506/2606 15014KT P6SM BKN018
     FM256300 18011KT 5SM -RA VCTS BKN015CB
     FM250900 18010KT P6SM BKN090
     FM251100 19009KT P6SM BKN250 WS020/22035KT
     FM251300 22010KT P6SM SCT250
     FM251500 25012KT P6SM FEW250=
