223 
FTUS43 KGRR 261720
TAFLAN
TAF
KLAN 261720Z 2618/2718 25006KT P6SM FEW040
     FM270700 VRB03KT 4SM BR FEW040
     FM271300 23007KT P6SM FEW040=
