369 
FTUS45 KGGW 260520
TAFOLF
TAF
KOLF 260520Z 2606/2706 VRB06KT P6SM SKC
     FM261000 VRB05KT P6SM BKN080
     FM261500 VRB05KT P6SM SCT070=
