FTNA35 KPAM 061941
TAFPAM
KPAM 061900Z 0619/0801 36009KT 9999 SCT030 QNH3007INS  
     TEMPO 0621/0701 35009KT 9999 VCTS BKN030CB        
     BECMG 0713/0714 04012KT 9999 SCT030 QNH3004INS TX32/0718Z TN26/0711Z
