155
FTUS43 KTOP 181121 RRC
TAFTOP

TOP 181120Z 1812/1912 15005KT P6SM BKN150
    FM181500 19009KT P6SM FEW050 SCT100
    FM190000 17004KT P6SM FEW080 PROB30 1909/1912 -TSRA BKN050CB=
