495
FTCA31 TTPP 281600
TAF  
TTPP 281600Z 2818/2918 10005KT 8000 ?RA SCT016
      TEMPO 2818/2912 5000 SHRA SCT015 SCT036=
TAF
TTCP 281600Z 2818/2918 10008KT 9999 FEW016
      TEMPO 2818/2912 5000 SHRA SCT015 SCT036=
TAF TGPY 281600Z NIL=
TAF TBPB 281600Z NIL=
TAF TLPL 281600Z NIL=
TAF TNCC 281600Z NIL=
TAF TNCA 281600Z NIL=
