249 
FTUS43 KLOT 091553 AAB
TAFORD
TAF AMD
KORD 091553Z 0916/1018 27007KT P6SM FEW060
     FM092200 22009KT P6SM SCT100
     FM100700 22013KT P6SM SCT100
     FM101400 26012G19KT P6SM SCT100=
