
162 
SAEA20 HKNC 032100
METAR HKJK 032100Z 23004KT 9999 SCT027 BKN070 17/16 Q1022=
METAR HRYR 032100Z 18005KT 150V210 9999 SCT026 SCT100  21/16 Q1021
 NOSIG=
METAR HUEN 032100Z 00000KT 9999 FEW019 FEW021CB  SCT110 22/21 Q1018
 NOSIG=

