
769 
SAUS80 KWBC 010000 RRI
METAR
KDMH 312354Z AUTO 00/M06 A3012 RMK AO1 SLP198 T00001061 10028
     20000 55008=
KNAK 312354Z AUTO 17012KT 10SM CLR 01/M04 A3013 RMK AO2 SLP203
     T00111044 10011 21011 56011 $=
KACY 312354Z 18008KT 10SM CLR M01/M06 A3013 RMK AO2 SLP203
     T10061061 10011 21017 56021=
KAKQ 312354Z AUTO 19004KT 10SM CLR 02/M08 A3020 RMK AO2 SLP231
     T00221083 10044 20017 55007 TSNO=
KAPN 312354Z AUTO 24008KT 10SM OVC025 01/M02 A2958 RMK AO2 SLP027
     60000 T00111022 10017 21011 53023=
KAVP 312354Z VRB06KT 10SM CLR M03/M12 A2993 RMK AO2 SLP147
     T10331122 11017 21050 56021=
KBTV 312354Z 18013G21KT 10SM BKN041 BKN048 OVC060 M05/M13 A2986
     RMK AO2 PK WND 18028/2322 SNB03E43 SLP119 4/001 P0000 60000
     T10501133 11044 21067 56034=
KBUF 312354Z 21014KT 10SM BKN050 OVC110 02/M07 A2973 RMK AO2
     SLP077 4/004 T00221067 10028 21028 53008 $=
KCAR 312354Z AUTO 00000KT 10SM CLR M14/M21 A2991 RMK AO2 SLP148
     T11391206 11083 21139 58001=
KCOS 312354Z 30003KT 10SM FEW120 FEW160 BKN230 07/M06 A2988 RMK
     AO2 SLP105 T00721061 10083 20028 53016=
KCOU 312354Z 33006KT 10SM CLR 08/M01 A2984 RMK AO2 SLP109
     T00781011 10144 20078 53019=
KCRW 312354Z 18013G18KT 10SM BKN190 10/M08 A2989 RMK AO2 SLP128
     T01001078 10111 20089 56009=
KJAN 312354Z 18011KT 10SM CLR 14/02 A3005 RMK AO2 SLP174 T01390017
     10183 20139 58014=
KLEX 312354Z 20011KT 10SM CLR 09/M05 A2989 RMK AO2 SLP126
     T00941050 10128 20089 50001=
KLYH 312354Z 20008KT 10SM CLR 03/M08 A3011 RMK AO2 SLP204
     T00281078 10061 20022 57002=
KMVL 312354Z AUTO 17007KT 2SM -SN OVC026 M07/M10 A2987 RMK AO2
     SNB25 SLP131 P0000 60000 T10671100 11050 21067 56029=
KORH 312354Z 19009KT 10SM SCT080 BKN100 M04/M16 A2999 RMK AO2
     SLP174 T10441156 11028 21044 58014=
KPIA 312354Z 29005KT 10SM CLR 05/M01 A2984 RMK AO2 SLP108
     T00501011 10078 20044 51022 $=
KPOV 312355Z AUTO 24004KT 10SM CLR 04/M05 A2980 RMK AO2
     T00401054=
KPZQ 312355Z AUTO 26008KT 10SM OVC023 00/M03 A2957 RMK AO2
     T00011032 10004 21015=
KRFD 312354Z 27003KT 10SM BKN160 OVC200 02/M03 A2981 RMK AO2
     SLP102 T00221028 10050 20017 52027=
KRIC 312354Z 18011KT 10SM BKN200 BKN250 03/M08 A3016 RMK AO2
     SLP220 T00281078 10044 20017 55006=
KROA 312354Z 17008KT 10SM FEW210 05/M08 A3010 RMK AO2 SLP200
     T00501078 10083 20039 53001=
KROC 312354Z 21011KT 10SM SCT055 BKN100 02/M10 A2974 RMK AO2
     SLP081 4/005 60000 T00221100 10022 21061 55000 $=
KROS 312355Z AUTO 28010G14KT 250V330 10SM OVC060 M03/M09 A2972 RMK
     AO2 T10331086 11022 21044=
KSBN 312354Z 22006KT 10SM CLR 03/M03 A2978 RMK AO2 SLP090
     T00281028 10039 20022 53022=
KSEA 312353Z 21006KT 10SM FEW026 BKN035 OVC100 07/03 A3019 RMK AO2
     SLP232 T00720028 10072 20056 56008=
KSUS 312354Z 00000KT 10SM CLR 06/M01 A2982 RMK AO2 SLP102
     T00611011 10150 20061 53016=
KSYR 312354Z 21014G20KT 10SM BKN120 OVC150 M02/M09 A2982 RMK AO2
     SLP101 4/004 60006 T10171094 11017 21061 56007=
KTKC 312355Z AUTO 26011G19KT 10SM -RA SCT035 BKN043 BKN050 02/00
     A2973 RMK AO2 T00180004 10035 21005=
KWAL 312354Z AUTO 19013KT 10SM CLR 01/M04 A3020 RMK AO2 SLP222
     T00111039 10022 20000 55019=
KDSM 312354Z 28004KT 10SM BKN100 OVC110 03/M03 A2988 RMK AO2
     SLP124 T00281033 10050 20022 53015=
KFNB 312353Z AUTO 32006KT 10SM CLR 04/M03 A2992 RMK AO2 SLP137
     T00391028 10078 20039 51024=
KFWA 312354Z 26010KT 10SM BKN110 OVC220 04/M02 A2981 RMK AO2
     SLP100 T00441017 10078 20044 53021=
KGSO 312354Z 20006KT 10SM FEW180 BKN250 04/M07 A3016 RMK AO2
     SLP220 T00391067 10072 20039 55001=


