
776 
SAUS70 KWBC 010030
METAR
KSPS 302352Z 10015KT 10SM TSGRRA BKN022CB BKN050 BKN200 25/16 A2967 RMK AO2
     TSB38RAB25GRB49 SLP036 LTGICCCCG OHD TS OHD GR 1/3 P0000 T02500161=
KALO 010001Z AUTO 17027G37KT 10SM FEW030 SCT110 19/16 A2979 RMK AO2
     PK WND 18049/2025 RAE48 SLP088 P0005 60014 T01890156 58046=

