000 
SAEW KAWN 020100 RRG
METAR 
METAR LFBA 020100Z AUTO 26009KT 220V280 9999 ///TCU 17/14 Q1013=
METAR LFBD 020100Z AUTO 26006KT 9999 FEW019 SCT054 BKN088 15/14 Q1013
      TEMPO 4000 SHRA BKN020TCU=
METAR LFLL 020100Z 19004KT 9999 VCSH SCT050 FEW056TCU SCT083 16/12
      Q1010 NOSIG=

