
665 
SACU31 MUHA 090915 RTD
METAR
MUCL 090905Z AUTO 09009KT 29/23 Q1014=


